NORAD_CAT_ID,OBJECT_NAME,OBJECT_TYPE,EPOCH,MEAN_MOTION,ECCENTRICITY,INCLINATION,RA_OF_ASC_NODE,ARG_OF_PERICENTER,MEAN_ANOMALY,BSTAR,MEAN_MOTION_DOT,MEAN_MOTION_DDOT,TLE_LINE0,TLE_LINE1,TLE_LINE2,SEMIMAJOR_AXIS,PERIOD,APOGEE,PERIGEE,DECAYED
55946.0,STARLINK-5857,PAYLOAD,2024-07-13 14:07:05,14.98331124,0.0002839,70.0012,7.5291,266.9335,93.1499,-3.8487e-05,-5.52e-06,0.0,0 STARLINK-5857,1 55946U 23037AJ  24195.58826362 -.00000552  00000-0 -38487-4 0  9993,2 55946  70.0012   7.5291 0002839 266.9335  93.1499 14.98331124 73495,6950.189,96.107,574.028,570.081,0.0
55946.0,STARLINK-5857,PAYLOAD,2024-07-13 20:31:38,14.98331335,0.0002843,70.0013,6.8558,266.9508,93.1325,-3.1252e-05,-4.66e-06,0.0,0 STARLINK-5857,1 55946U 23037AJ  24195.85530315 -.00000466  00000-0 -31252-4 0  9990,2 55946  70.0013   6.8558 0002843 266.9508  93.1325 14.98331335 73538,6950.189,96.107,574.03,570.078,0.0
55946.0,STARLINK-5857,PAYLOAD,2024-07-14 12:32:58,14.98329381,0.0002875,70.0012,5.1724,262.9202,97.1631,3.9872e-06,-4.5e-07,0.0,0 STARLINK-5857,1 55946U 23037AJ  24196.52290290 -.00000045  00000-0  39872-5 0  9999,2 55946  70.0012   5.1724 0002875 262.9202  97.1631 14.98329381 73976,6950.195,96.107,574.058,570.062,0.0
55946.0,STARLINK-5857,PAYLOAD,2024-07-14 14:09:06,14.98329358,0.000288,70.0012,5.0041,262.8199,97.2633,3.344e-06,-5.3e-07,0.0,0 STARLINK-5857,1 55946U 23037AJ  24196.58966292 -.00000053  00000-0  33440-5 0  9991,2 55946  70.0012   5.0041 0002880 262.8199  97.2633 14.98329358 73648,6950.195,96.107,574.062,570.058,0.0
55946.0,STARLINK-5857,PAYLOAD,2024-07-14 20:33:39,14.98331167,0.0002901,70.0013,4.3305,267.9859,92.0968,2.3578e-05,1.88e-06,0.0,0 STARLINK-5857,1 55946U 23037AJ  24196.85670155  .00000188  00000-0  23578-4 0  9999,2 55946  70.0013   4.3305 0002901 267.9859  92.0968 14.98331167 73686,6950.189,96.107,574.071,570.038,0.0
55946.0,STARLINK-5857,PAYLOAD,2024-07-15 12:35:00,14.98327094,0.0003094,70.001,2.648,273.3859,86.6946,-2.3356e-05,-3.72e-06,0.0,0 STARLINK-5857,1 55946U 23037AJ  24197.52430565 -.00000372  00000-0 -23356-4 0  9994,2 55946  70.0010   2.6480 0003094 273.3859  86.6946 14.98327094 74122,6950.202,96.107,574.217,569.916,0.0
55946.0,STARLINK-5857,PAYLOAD,2024-07-15 14:11:08,14.98327684,0.0003093,70.0011,2.4796,273.302,86.7785,-1.6903e-05,-2.95e-06,0.0,0 STARLINK-5857,1 55946U 23037AJ  24197.59106518 -.00000295  00000-0 -16903-4 0  9993,2 55946  70.0011   2.4796 0003093 273.3020  86.7785 14.98327684 73799,6950.2,96.107,574.215,569.915,0.0
55946.0,STARLINK-5857,PAYLOAD,2024-07-15 20:35:39,14.98331009,0.0002957,70.0014,1.806,270.9624,89.1196,2.6117e-05,2.19e-06,0.0,0 STARLINK-5857,1 55946U 23037AJ  24197.85810182  .00000219  00000-0  26117-4 0  9993,2 55946  70.0014   1.8060 0002957 270.9624  89.1196 14.98331009 73834,6950.19,96.107,574.11,570.0,0.0
55946.0,STARLINK-5857,PAYLOAD,2024-07-16 12:37:00,14.98330685,0.0003004,70.0013,0.1223,270.8796,89.2019,-1.2105e-05,-2.37e-06,0.0,0 STARLINK-5857,1 55946U 23037AJ  24198.52570274 -.00000237  00000-0 -12105-4 0  9997,2 55946  70.0013   0.1223 0003004 270.8796  89.2019 14.98330685 74272,6950.191,96.107,574.144,569.968,0.0
55946.0,STARLINK-5857,PAYLOAD,2024-07-16 14:13:08,14.98330887,0.0003006,70.0014,359.954,270.8008,89.2806,-9.8865e-06,-2.11e-06,0.0,0 STARLINK-5857,1 55946U 23037AJ  24198.59246248 -.00000211  00000-0 -98865-5 0  9995,2 55946  70.0014 359.9540 0003006 270.8008  89.2806 14.98330887 73949,6950.19,96.107,574.144,569.966,0.0
55946.0,STARLINK-5857,PAYLOAD,2024-07-16 20:37:40,14.98336444,0.000293,70.0017,359.2805,267.9292,92.1532,5.6997e-05,5.87e-06,0.0,0 STARLINK-5857,1 55946U 23037AJ  24198.85949650  .00000587  00000-0  56997-4 0  9994,2 55946  70.0017 359.2805 0002930 267.9292  92.1532 14.98336444 73984,6950.173,96.107,574.074,570.002,0.0
55946.0,STARLINK-5857,PAYLOAD,2024-07-17 12:39:02,14.98321421,0.0002957,70.0022,357.5968,273.1101,86.972,-1.5054e-05,-2.73e-06,0.0,0 STARLINK-5857,1 55946U 23037AJ  24199.52710864 -.00000273  00000-0 -15054-4 0  9995,2 55946  70.0022 357.5968 0002957 273.1101  86.9720 14.98321421 74427,6950.219,96.108,574.14,570.029,0.0
55946.0,STARLINK-5857,PAYLOAD,2024-07-17 20:39:42,14.9832608,0.0002768,70.0026,356.7567,278.1748,81.9097,-1.4464e-05,-2.65e-06,0.0,0 STARLINK-5857,1 55946U 23037AJ  24199.86090720 -.00000265  00000-0 -14464-4 0  9999,2 55946  70.0026 356.7567 0002768 278.1748  81.9097 14.98326080 74135,6950.205,96.107,573.994,570.146,0.0
55946.0,STARLINK-5857,PAYLOAD,2024-07-18 12:41:02,14.98333961,0.0002859,70.0015,355.0727,270.83,89.2531,-2.2547e-05,-3.62e-06,0.0,0 STARLINK-5857,1 55946U 23037AJ  24200.52850178 -.00000362  00000-0 -22547-4 0  9995,2 55946  70.0015 355.0727 0002859 270.8300  89.2531 14.98333961 74575,6950.181,96.107,574.033,570.059,0.0
55946.0,STARLINK-5857,PAYLOAD,2024-07-18 14:17:10,14.98332392,0.0002857,70.0016,354.9041,269.8041,90.2791,-1.5812e-05,-2.82e-06,0.0,0 STARLINK-5857,1 55946U 23037AJ  24200.59526226 -.00000282  00000-0 -15812-4 0  9994,2 55946  70.0016 354.9041 0002857 269.8041  90.2791 14.98332392 74242,6950.185,96.107,574.036,570.065,0.0
55946.0,STARLINK-5857,PAYLOAD,2024-07-18 20:41:42,14.98339311,0.0002863,70.0016,354.2309,270.1499,89.9332,3.6995e-05,3.49e-06,0.0,0 STARLINK-5857,1 55946U 23037AJ  24200.86229565  .00000349  00000-0  36995-4 0  9997,2 55946  70.0016 354.2309 0002863 270.1499  89.9332 14.98339311 74289,6950.164,96.106,574.019,570.039,0.0
55946.0,STARLINK-5857,PAYLOAD,2024-07-19 12:43:04,14.98292176,0.0002655,70.0023,352.5503,262.8237,97.262,0.00058181,6.849e-05,0.0,0 STARLINK-5857,1 55946U 23037AJ  24201.52991113  .00006849  00000-0  58181-3 0  9997,2 55946  70.0023 352.5503 0002655 262.8237  97.2620 14.98292176 74729,6950.31,96.109,574.02,570.33,0.0
55946.0,STARLINK-5857,PAYLOAD,2024-07-19 14:19:13,14.98243876,0.0003075,70.0023,352.3818,257.7422,102.3393,0.0013997,0.00016611,0.0,0 STARLINK-5857,1 55946U 23037AJ  24201.59668284  .00016611  00000-0  13997-2 0  9997,2 55946  70.0023 352.3818 0003075 257.7422 102.3393 14.98243876 74393,6950.459,96.113,574.462,570.187,0.0
55946.0,STARLINK-5857,PAYLOAD,2024-07-19 19:07:36,14.98325273,0.0002551,70.0024,351.8767,257.9622,102.1251,6.1641e-06,-1.9e-07,0.0,0 STARLINK-5857,1 55946U 23037AJ  24201.79694554 -.00000019  00000-0  61641-5 0  9996,2 55946  70.0024 351.8767 0002551 257.9622 102.1251 14.98325273 74767,6950.208,96.107,573.846,570.3,0.0
55946.0,STARLINK-5857,PAYLOAD,2024-07-20 12:45:04,14.98332687,0.0002597,70.0024,350.025,259.9089,100.1777,-2.0091e-05,-3.33e-06,0.0,0 STARLINK-5857,1 55946U 23037AJ  24202.53130145 -.00000333  00000-0 -20091-4 0  9993,2 55946  70.0024 350.0250 0002597 259.9089 100.1777 14.98332687 74874,6950.185,96.107,573.855,570.245,0.0
55946.0,STARLINK-5857,PAYLOAD,2024-07-20 14:21:12,14.98332243,0.0002616,70.0024,349.8566,259.8095,100.2769,-2.5295e-05,-3.95e-06,0.0,0 STARLINK-5857,1 55946U 23037AJ  24202.59806174 -.00000395  00000-0 -25295-4 0  9990,2 55946  70.0024 349.8566 0002616 259.8095 100.2769 14.98332243 74542,6950.186,96.107,573.869,570.233,0.0
55946.0,STARLINK-5857,PAYLOAD,2024-07-20 19:09:36,14.98335478,0.0002836,70.0018,349.3499,270.2986,89.7848,1.3762e-05,7.1e-07,0.0,0 STARLINK-5857,1 55946U 23037AJ  24202.79833867  .00000071  00000-0  13762-4 0  9996,2 55946  70.0018 349.3499 0002836 270.2986  89.7848 14.98335478 74570,6950.176,96.107,574.012,570.07,0.0
55946.0,STARLINK-5857,PAYLOAD,2024-07-21 12:47:05,14.98324234,0.0003109,70.0014,347.4963,274.9542,85.1262,2.6157e-05,2.19e-06,0.0,0 STARLINK-5857,1 55946U 23037AJ  24203.53270437  .00000219  00000-0  26157-4 0  9993,2 55946  70.0014 347.4963 0003109 274.9542  85.1262 14.98324234 75023,6950.211,96.107,574.237,569.915,0.0
55946.0,STARLINK-5857,PAYLOAD,2024-07-21 14:23:13,14.9832424,0.0003112,70.0014,347.3279,274.7529,85.3274,2.7927e-05,2.4e-06,0.0,0 STARLINK-5857,1 55946U 23037AJ  24203.59946441  .00000240  00000-0  27927-4 0  9994,2 55946  70.0014 347.3279 0003112 274.7529  85.3274 14.98324240 74693,6950.211,96.107,574.239,569.913,0.0
55946.0,STARLINK-5857,PAYLOAD,2024-07-21 19:11:37,14.98330952,0.0002938,70.0016,346.8228,269.1688,90.9135,9.9275e-05,1.092e-05,0.0,0 STARLINK-5857,1 55946U 23037AJ  24203.79973825  .00001092  00000-0  99275-4 0  9993,2 55946  70.0016 346.8228 0002938 269.1688  90.9135 14.98330952 75069,6950.19,96.107,574.097,570.013,0.0
55946.0,STARLINK-5857,PAYLOAD,2024-07-22 04:48:26,14.98318977,0.0003271,70.0015,345.8155,276.3942,83.6845,-0.00011193,-1.428e-05,0.0,0 STARLINK-5857,1 55946U 23037AJ  24204.20031027 -.00001428  00000-0 -11193-3 0  9996,2 55946  70.0015 345.8155 0003271 276.3942  83.6845 14.98318977 75127,6950.227,96.108,574.365,569.819,0.0
55946.0,STARLINK-5857,PAYLOAD,2024-07-22 12:49:06,14.98330847,0.0003178,70.0009,344.9726,271.5671,88.5124,-1.5594e-05,-2.79e-06,0.0,0 STARLINK-5857,1 55946U 23037AJ  24204.53410091 -.00000279  00000-0 -15594-4 0  9997,2 55946  70.0009 344.9726 0003178 271.5671  88.5124 14.98330847 75175,6950.19,96.107,574.264,569.847,0.0
55946.0,STARLINK-5857,PAYLOAD,2024-07-22 14:25:14,14.9833373,0.0003209,70.0009,344.8041,272.4108,87.6683,1.6013e-05,9.8e-07,0.0,0 STARLINK-5857,1 55946U 23037AJ  24204.60085830  .00000098  00000-0  16013-4 0  9998,2 55946  70.0009 344.8041 0003209 272.4108  87.6683 14.98333730 74841,6950.181,96.107,574.277,569.816,0.0
55946.0,STARLINK-5857,PAYLOAD,2024-07-22 19:13:37,14.98339515,0.0003323,70.0006,344.2992,273.1722,86.9057,6.6233e-05,6.98e-06,0.0,0 STARLINK-5857,1 55946U 23037AJ  24204.80113262  .00000698  00000-0  66233-4 0  9996,2 55946  70.0006 344.2992 0003323 273.1722  86.9057 14.98339515 75210,6950.163,96.106,574.338,569.719,0.0
55946.0,STARLINK-5857,PAYLOAD,2024-07-22 22:25:53,14.98342824,0.0003222,70.0008,343.9623,272.3982,87.6808,0.00010285,1.135e-05,0.0,0 STARLINK-5857,1 55946U 23037AJ  24204.93464879  .00001135  00000-0  10285-3 0  9995,2 55946  70.0008 343.9623 0003222 272.3982  87.6808 14.98342824 74898,6950.153,96.106,574.258,569.779,0.0
